SL-3 R/B                
1 13403U 82079B   25357.12283525  .00006217  00000+0  25531-3 0  9991
2 13403  81.1481 283.4212 0026952  65.7376 294.6668 15.23703692366033
SL-14 R/B               
1 13553U 82092B   25357.12547881  .00000451  00000+0  47949-4 0  9992
2 13553  82.5673 212.9989 0019968 191.1317 292.6966 14.86565135317551
SL-3 R/B                
1 13819U 83010B   25356.36609743  .00015834  00000+0  34830-3 0  9994
2 13819  81.1051  96.8674 0016657 317.0227  42.9714 15.43703186346005
SL-3 R/B                
1 14208U 83075B   25357.07882098  .00011382  00000+0  32061-3 0  9991
2 14208  97.6106 353.9103 0023826 139.4980 220.8043 15.36332560318381
COSMOS 1536             
1 14699U 84013A   25356.92727204  .00006966  00000+0  29739-3 0  9998
2 14699  82.5442 184.0602 0014323 187.8294 172.2722 15.22630662260935
SL-14 R/B               
1 14820U 84027B   25356.99352319  .00000506  00000+0  55212-4 0  9997
2 14820  82.5420 316.9400 0016768 223.9048 136.0837 14.85884843236245
SL-8 R/B                
1 15483U 85006B   25357.11324237  .00000268  00000+0  97784-4 0  9999
2 15483  74.0460  42.0494 0019135 332.0988  58.5548 14.37727180143024
SL-12 R/B(2)            
1 15772U 85042D   25356.87813312  .00000046  00000+0  42441-4 0  9993
2 15772  71.1073 250.0020 0037356 246.5821 185.8862 14.21954854103470
SL-14 R/B               
1 15945U 85069B   25356.79970356  .00000484  00000+0  51985-4 0  9996
2 15945  82.5273  97.2460 0020338  87.5919 272.7626 14.86335324161410
SL-16 R/B               
1 16182U 85097B   25357.23843436 -.00000127  00000+0 -39808-4 0  9995
2 16182  71.0038 301.5003 0007383 353.9692 108.7310 14.16587754 76404
SL-14 R/B               
1 16496U 86006B   25357.19972623  .00000568  00000+0  57697-4 0  9993
2 16496  82.5269 331.7084 0077089 165.0754 195.2765 14.86684123137846
COSMOS 1743             
1 16719U 86034A   25357.16097931  .00030661  00000+0  49498-3 0  9995
2 16719  82.5349 153.7628 0004956 208.7255 151.3725 15.52718050168353
